H1 CPF  1  DLR 2022 09 25 10  7682 technosat            
H2  1704205 6203    42829 2022 09 25 00 00 00 2022 10 02 00 00 00    60 1 1  0 0 0
H9
10 0 59849   7200.000000  0       -160844.083       4239639.758      -5537348.006
10 0 59849   7260.000000  0        -57814.819       4585217.628      -5255888.291
10 0 59849   7320.000000  0         48393.299       4910633.566      -4952206.973
10 0 59849   7380.000000  0        157151.714       5214480.676      -4627572.056
10 0 59849   7440.000000  0        267808.551       5495446.114      -4283342.098
10 0 59849   7500.000000  0        379692.188       5752317.150      -3920960.805
10 0 59849   7560.000000  0        492114.973       5983986.810      -3541951.215
10 0 59849   7620.000000  0        604377.080       6189459.102      -3147909.511
10 0 59849   7680.000000  0        715770.486       6367853.794      -2740498.433
10 0 59849   7740.000000  0        825583.051       6518410.674      -2321440.309
10 0 59849   7800.000000  0        933102.664       6640493.268      -1892509.756
10 0 59849   7860.000000  0       1037621.439       6733591.970      -1455526.066
10 0 59849   7920.000000  0       1138439.918       6797326.586      -1012345.346
10 0 59849   7980.000000  0       1234871.308       6831448.250       -564852.409
10 0 59849   8040.000000  0       1326245.669       6835840.664       -114952.479
10 0 59849   8100.000000  0       1411914.018       6810520.660        335437.227
10 0 59849   8160.000000  0       1491252.325       6755638.111        784395.971
10 0 59849   8220.000000  0       1563665.387       6671475.206       1230007.998
10 0 59849   8280.000000  0       1628590.601       6558445.103       1670371.030
10 0 59849   8340.000000  0       1685501.557       6417089.912       2103604.752
10 0 59849   8400.000000  0       1733911.444       6248078.014       2527859.156
10 0 59849   8460.000000  0       1773376.260       6052200.802       2941322.733
10 0 59849   8520.000000  0       1803497.793       5830368.838       3342230.558
10 0 59849   8580.000000  0       1823926.309       5583607.333       3728872.161
10 0 59849   8640.000000  0       1834362.997       5313051.039       4099598.967
10 0 59849   8700.000000  0       1834562.164       5019938.776       4452831.492
10 0 59849   8760.000000  0       1824333.138       4705607.341       4787066.380
10 0 59849   8820.000000  0       1803541.773       4371484.843       5100882.760
10 0 59849   8880.000000  0       1772111.650       4019083.868       5392948.095
10 0 59849   8940.000000  0       1730025.053       3649994.392       5662023.731
10 0 59849   9000.000000  0       1677323.639       3265876.332       5906970.097
10 0 59849   9060.000000  0       1614108.732       2868451.779       6126751.440
10 0 59849   9120.000000  0       1540541.300       2459497.006       6320440.047
10 0 59849   9180.000000  0       1456841.641       2040834.273       6487219.996
10 0 59849   9240.000000  0       1363288.750       1614323.468       6626390.384
10 0 59849   9300.000000  0       1260219.360       1181853.654       6737368.010
10 0 59849   9360.000000  0       1148026.684        745334.619       6819689.554
10 0 59849   9420.000000  0       1027158.888        306688.439       6873013.312
10 0 59849   9480.000000  0        898117.257       -132158.971       6897120.547
10 0 59849   9540.000000  0        761454.047       -569286.432       6891916.339
10 0 59849   9600.000000  0        617770.076      -1002785.986       6857429.806
10 0 59849   9660.000000  0        467712.045      -1430771.229       6793813.869
10 0 59849   9720.000000  0        311969.569      -1851385.545       6701344.511
10 0 59849   9780.000000  0        151271.990      -2262810.169       6580419.585
10 0 59849   9840.000000  0        -13615.073      -2663272.160       6431557.097
10 0 59849   9900.000000  0       -181893.332      -3051052.068       6255392.851
10 0 59849   9960.000000  0       -352735.613      -3424491.251       6052677.754
10 0 59849  10020.000000  0       -525289.868      -3781998.973       5824274.689
10 0 59849  10080.000000  0       -698683.298      -4122059.174       5571154.958
10 0 59849  10140.000000  0       -872026.675      -4443236.995       5294394.388
10 0 59849  10200.000000  0      -1044418.858      -4744185.025       4995168.939
10 0 59849  10260.000000  0      -1214951.416      -5023649.187       4674749.811
10 0 59849  10320.000000  0      -1382713.331      -5280474.175       4334498.073
10 0 59849  10380.000000  0      -1546795.738      -5513608.433       3975858.884
10 0 59849  10440.000000  0      -1706296.731      -5722108.627       3600355.330
10 0 59849  10500.000000  0      -1860326.180      -5905143.594       3209581.926
10 0 59849  10560.000000  0      -2008010.531      -6061997.776       2805197.831
10 0 59849  10620.000000  0      -2148497.604      -6192074.158       2388919.746
10 0 59849  10680.000000  0      -2280961.289      -6294896.617       1962514.492
10 0 59849  10740.000000  0      -2404606.111      -6370111.705       1527791.381
10 0 59849  10800.000000  0      -2518671.688      -6417489.857       1086594.396
10 0 59849  10860.000000  0      -2622437.042      -6436926.008        640794.197
10 0 59849  10920.000000  0      -2715224.725      -6428439.605        192280.023
10 0 59849  10980.000000  0      -2796404.733      -6392174.035       -257048.491
10 0 59849  11040.000000  0      -2865398.212      -6328395.458       -705289.532
10 0 59849  11100.000000  0      -2921680.912      -6237491.052      -1150547.318
10 0 59849  11160.000000  0      -2964786.381      -6119966.685      -1590940.254
10 0 59849  11220.000000  0      -2994308.875      -5976444.038      -2024608.990
10 0 59849  11280.000000  0      -3009905.968      -5807657.209      -2449724.365
10 0 59849  11340.000000  0      -3011300.840      -5614448.772      -2864495.187
10 0 59849  11400.000000  0      -2998284.222      -5397765.351      -3267175.783
10 0 59849  11460.000000  0      -2970715.995      -5158652.735      -3656073.282
10 0 59849  11520.000000  0      -2928526.452      -4898250.596      -4029554.596
10 0 59849  11580.000000  0      -2871717.212      -4617786.851      -4386053.094
10 0 59849  11640.000000  0      -2800361.809      -4318571.687      -4724074.961
10 0 59849  11700.000000  0      -2714605.919      -4001991.283      -5042205.198
10 0 59849  11760.000000  0      -2614667.276      -3669501.256      -5339113.268
10 0 59849  11820.000000  0      -2500835.238      -3322619.880      -5613558.371
10 0 59849  11880.000000  0      -2373470.016      -2962921.087      -5864394.316
10 0 59849  11940.000000  0      -2233001.557      -2592027.301      -6090574.011
10 0 59849  12000.000000  0      -2079928.067      -2211602.129      -6291153.522
10 0 59849  12060.000000  0      -1914814.229      -1823342.926      -6465295.678
10 0 59849  12120.000000  0      -1738289.137      -1428973.336      -6612273.228
10 0 59849  12180.000000  0      -1551043.940      -1030235.771      -6731471.603
10 0 59849  12240.000000  0      -1353829.200       -628883.885      -6822391.208
10 0 59849  12300.000000  0      -1147452.001       -226675.077      -6884649.330
10 0 59849  12360.000000  0       -932772.729        174636.947      -6917981.637
10 0 59849  12420.000000  0       -710701.582        573309.569      -6922243.271
10 0 59849  12480.000000  0       -482194.846        967618.630      -6897409.505
10 0 59849  12540.000000  0       -248250.940       1355865.682      -6843575.870
10 0 59849  12600.000000  0         -9906.287       1736385.021      -6760957.977
10 0 59849  12660.000000  0        231769.097       2107550.738      -6649890.973
10 0 59849  12720.000000  0        475676.308       2467783.593      -6510828.465
10 0 59849  12780.000000  0        720692.447       2815557.684      -6344340.981
10 0 59849  12840.000000  0        965675.641       3149406.937      -6151113.919
10 0 59849  12900.000000  0       1209470.198       3467931.301      -5931945.051
10 0 59849  12960.000000  0       1450911.939       3769802.674      -5687741.672
10 0 59849  13020.000000  0       1688833.669       4053770.604      -5419517.276
10 0 59849  13080.000000  0       1922070.751       4318667.675      -5128387.774
10 0 59849  13140.000000  0       2149466.774       4563414.596      -4815567.268
10 0 59849  13200.000000  0       2369879.270       4787024.941      -4482363.304
10 0 59849  13260.000000  0       2582185.413       4988609.434      -4130171.687
10 0 59849  13320.000000  0       2785287.739       5167379.810      -3760470.944
10 0 59849  13380.000000  0       2978119.848       5322652.303      -3374816.374
10 0 59849  13440.000000  0       3159652.053       5453850.669      -2974833.664
10 0 59849  13500.000000  0       3328896.936       5560508.683      -2562212.091
10 0 59849  13560.000000  0       3484914.735       5642272.083      -2138697.419
10 0 59849  13620.000000  0       3626818.567       5698900.057      -1706084.495
10 0 59849  13680.000000  0       3753779.447       5730266.163      -1266209.497
10 0 59849  13740.000000  0       3865031.043       5736358.667       -820941.950
10 0 59849  13800.000000  0       3959874.150       5717280.317       -372176.564
10 0 59849  13860.000000  0       4037680.897       5673247.554         78175.111
10 0 59849  13920.000000  0       4097898.582       5604589.135        528193.145
10 0 59849  13980.000000  0       4140053.160       5511744.151        975957.740
10 0 59849  14040.000000  0       4163752.317       5395259.495       1419557.728
10 0 59849  14100.000000  0       4168688.132       5255786.875       1857098.973
10 0 59849  14160.000000  0       4154639.434       5094079.453       2286712.824
10 0 59849  14220.000000  0       4121473.707       4910987.786       2706564.656
10 0 59849  14280.000000  0       4069148.320       4707455.089       3114862.034
10 0 59849  14340.000000  0       3997711.358       4484512.271       3509862.499
99
